start=new Date('2022-12-03T00:00:00.000Z').valueOf();
sats=[{"CENTER_NAME":"EARTH","FILE":"3679375","COUNTRY_CODE":"US","TLE_LINE1":"1 45713U 20035BJ  22336.38301753  .00001746  00000-0  13609-3 0  9996","MEAN_ELEMENT_THEORY":"SGP4","REV_AT_EPOCH":"13860","TLE_LINE2":"2 45713  53.0570  13.5708 0001677  66.7836 293.3329 15.06396072138601","MEAN_MOTION_DOT":"0.00001746","SITE":"AFETR","INCLINATION":"53.0570","PERIOD":"95.592","EPHEMERIS_TYPE":"0","OBJECT_ID":"2020-035BJ","PERIAPSIS":"546.064","RA_OF_ASC_NODE":"13.5708","ARG_OF_PERICENTER":"66.7836","MEAN_ANOMALY":"293.3329","RCS_SIZE":"LARGE","TIME_SYSTEM":"UTC","NORAD_CAT_ID":"45713","SEMIMAJOR_AXIS":"6925.361","CLASSIFICATION_TYPE":"U","REF_FRAME":"TEME","MEAN_MOTION":"15.06396072","OBJECT_TYPE":"PAYLOAD","ECCENTRICITY":"0.00016770","ELEMENT_SET_NO":"999","BSTAR":"0.00013609000000","EPOCH":"2022-12-02T09:11:32.714592","GP_ID":"219356788","LAUNCH_DATE":"2020-06-04","APOAPSIS":"548.387","DECAY_DATE":null,"OBJECT_NAME":"STARLINK-1436","MEAN_MOTION_DDOT":"0.0000000000000"},{"BSTAR":"0.00019662000000","OBJECT_NAME":"STARLINK-1437","MEAN_MOTION_DDOT":"0.0000000000000","GP_ID":"219348035","EPOCH":"2022-12-02T10:33:48.660192","DECAY_DATE":null,"APOAPSIS":"548.357","LAUNCH_DATE":"2020-06-04","SEMIMAJOR_AXIS":"6925.332","MEAN_ANOMALY":"300.1321","RCS_SIZE":"LARGE","NORAD_CAT_ID":"45714","TIME_SYSTEM":"UTC","MEAN_MOTION":"15.06405415","OBJECT_TYPE":"PAYLOAD","ELEMENT_SET_NO":"999","ECCENTRICITY":"0.00016750","CLASSIFICATION_TYPE":"U","REF_FRAME":"TEME","EPHEMERIS_TYPE":"0","PERIOD":"95.592","INCLINATION":"53.0559","SITE":"AFETR","ARG_OF_PERICENTER":"59.9834","PERIAPSIS":"546.037","OBJECT_ID":"2020-035BK","RA_OF_ASC_NODE":"353.3294","CENTER_NAME":"EARTH","TLE_LINE1":"1 45714U 20035BK  22336.44014653  .00002649  00000-0  19662-3 0  9992","REV_AT_EPOCH":"13930","TLE_LINE2":"2 45714  53.0559 353.3294 0001675  59.9834 300.1321 15.06405415139303","MEAN_MOTION_DOT":"0.00002649","MEAN_ELEMENT_THEORY":"SGP4","FILE":"3679245","COUNTRY_CODE":"US"},{"TLE_LINE1":"1 45730U 20038A   22336.71660534  .00000641  00000-0  61928-4 0  9991","TLE_LINE2":"2 45730  53.0525 192.0833 0001913  54.6793 305.4375 15.06390380136399","REV_AT_EPOCH":"13639","MEAN_MOTION_DOT":"0.00000641","MEAN_ELEMENT_THEORY":"SGP4","FILE":"3679625","COUNTRY_CODE":"US","CENTER_NAME":"EARTH","ARG_OF_PERICENTER":"54.6793","PERIAPSIS":"545.918","OBJECT_ID":"2020-038A","RA_OF_ASC_NODE":"192.0833","EPHEMERIS_TYPE":"0","PERIOD":"95.593","INCLINATION":"53.0525","SITE":"AFETR","MEAN_MOTION":"15.06390380","OBJECT_TYPE":"PAYLOAD","ELEMENT_SET_NO":"999","ECCENTRICITY":"0.00019130","CLASSIFICATION_TYPE":"U","REF_FRAME":"TEME","SEMIMAJOR_AXIS":"6925.378","MEAN_ANOMALY":"305.4375","RCS_SIZE":"LARGE","NORAD_CAT_ID":"45730","TIME_SYSTEM":"UTC","OBJECT_NAME":"STARLINK-1461","MEAN_MOTION_DDOT":"0.0000000000000","GP_ID":"219377900","EPOCH":"2022-12-02T17:11:54.701376","DECAY_DATE":null,"LAUNCH_DATE":"2020-06-13","APOAPSIS":"548.568","BSTAR":"0.00006192800000"},{"REF_FRAME":"TEME","CLASSIFICATION_TYPE":"U","MEAN_MOTION":"15.06403412","OBJECT_TYPE":"PAYLOAD","ELEMENT_SET_NO":"999","ECCENTRICITY":"0.00017820","RCS_SIZE":"LARGE","MEAN_ANOMALY":"299.9333","NORAD_CAT_ID":"45731","TIME_SYSTEM":"UTC","SEMIMAJOR_AXIS":"6925.338","GP_ID":"219378148","EPOCH":"2022-12-02T14:22:03.016128","DECAY_DATE":null,"APOAPSIS":"548.437","LAUNCH_DATE":"2020-06-13","OBJECT_NAME":"STARLINK-1465","MEAN_MOTION_DDOT":"0.0000000000000","BSTAR":"0.00003962700000","FILE":"3679625","COUNTRY_CODE":"US","TLE_LINE1":"1 45731U 20038B   22336.59864602  .00000309  00000-0  39627-4 0  9992","TLE_LINE2":"2 45731  53.0543 192.6192 0001782  60.1833 299.9333 15.06403412136364","REV_AT_EPOCH":"13636","MEAN_MOTION_DOT":"0.00000309","MEAN_ELEMENT_THEORY":"SGP4","CENTER_NAME":"EARTH","PERIAPSIS":"545.969","OBJECT_ID":"2020-038B","RA_OF_ASC_NODE":"192.6192","ARG_OF_PERICENTER":"60.1833","SITE":"AFETR","INCLINATION":"53.0543","EPHEMERIS_TYPE":"0","PERIOD":"95.592"},{"ARG_OF_PERICENTER":"57.2756","RA_OF_ASC_NODE":"192.3747","OBJECT_ID":"2020-038C","PERIAPSIS":"546.086","PERIOD":"95.592","EPHEMERIS_TYPE":"0","INCLINATION":"53.0552","SITE":"AFETR","MEAN_ELEMENT_THEORY":"SGP4","TLE_LINE2":"2 45732  53.0552 192.3747 0001635  57.2756 302.8391 15.06398466136377","REV_AT_EPOCH":"13637","MEAN_MOTION_DOT":"-0.00001850","TLE_LINE1":"1 45732U 20038C   22336.65394427 -.00001850  00000-0 -10531-3 0  9999","COUNTRY_CODE":"US","FILE":"3679625","CENTER_NAME":"EARTH","OBJECT_NAME":"STARLINK-1466","MEAN_MOTION_DDOT":"0.0000000000000","LAUNCH_DATE":"2020-06-13","APOAPSIS":"548.351","DECAY_DATE":null,"EPOCH":"2022-12-02T15:41:40.784928","GP_ID":"219378900","BSTAR":"-0.00010531000000","ELEMENT_SET_NO":"999","ECCENTRICITY":"0.00016350","OBJECT_TYPE":"PAYLOAD","MEAN_MOTION":"15.06398466","REF_FRAME":"TEME","CLASSIFICATION_TYPE":"U","SEMIMAJOR_AXIS":"6925.353","TIME_SYSTEM":"UTC","NORAD_CAT_ID":"45732","MEAN_ANOMALY":"302.8391","RCS_SIZE":"LARGE"},{"ARG_OF_PERICENTER":"124.0770","OBJECT_ID":"2020-038D","PERIAPSIS":"533.246","RA_OF_ASC_NODE":"192.3009","EPHEMERIS_TYPE":"0","PERIOD":"95.344","INCLINATION":"53.0534","SITE":"AFETR","TLE_LINE1":"1 45733U 20038D   22336.31077949  .00015725  00000-0  96408-3 0  9991","REV_AT_EPOCH":"13634","TLE_LINE2":"2 45733  53.0534 192.3009 0002873 124.0770 236.0493 15.10317653136345","MEAN_MOTION_DOT":"0.00015725","MEAN_ELEMENT_THEORY":"SGP4","FILE":"3679245","COUNTRY_CODE":"US","CENTER_NAME":"EARTH","MEAN_MOTION_DDOT":"0.0000000000000","OBJECT_NAME":"STARLINK-1467","GP_ID":"219348036","EPOCH":"2022-12-02T07:27:31.347936","DECAY_DATE":null,"APOAPSIS":"537.219","LAUNCH_DATE":"2020-06-13","BSTAR":"0.00096408000000","OBJECT_TYPE":"PAYLOAD","MEAN_MOTION":"15.10317653","ECCENTRICITY":"0.00028730","ELEMENT_SET_NO":"999","CLASSIFICATION_TYPE":"U","REF_FRAME":"TEME","SEMIMAJOR_AXIS":"6913.367","MEAN_ANOMALY":"236.0493","RCS_SIZE":"LARGE","NORAD_CAT_ID":"45733","TIME_SYSTEM":"UTC"},{"SEMIMAJOR_AXIS":"6915.903","MEAN_ANOMALY":"243.2931","RCS_SIZE":"LARGE","NORAD_CAT_ID":"45734","TIME_SYSTEM":"UTC","MEAN_MOTION":"15.09487001","OBJECT_TYPE":"PAYLOAD","ECCENTRICITY":"0.00027850","ELEMENT_SET_NO":"999","REF_FRAME":"TEME","CLASSIFICATION_TYPE":"U","BSTAR":"0.00060907000000","MEAN_MOTION_DDOT":"0.0000000000000","OBJECT_NAME":"STARLINK-1468","GP_ID":"219346285","EPOCH":"2022-12-02T08:20:03.215616","DECAY_DATE":null,"APOAPSIS":"539.695","LAUNCH_DATE":"2020-06-13","CENTER_NAME":"EARTH","TLE_LINE1":"1 45734U 20038E   22336.34725944  .00009591  00000-0  60907-3 0  9999","TLE_LINE2":"2 45734  53.0536 192.7416 0002785 116.8344 243.2931 15.09487001136342","MEAN_MOTION_DOT":"0.00009591","REV_AT_EPOCH":"13634","MEAN_ELEMENT_THEORY":"SGP4","FILE":"3679245","COUNTRY_CODE":"US","EPHEMERIS_TYPE":"0","PERIOD":"95.397","INCLINATION":"53.0536","SITE":"AFETR","ARG_OF_PERICENTER":"116.8344","PERIAPSIS":"535.842","OBJECT_ID":"2020-038E","RA_OF_ASC_NODE":"192.7416"},{"BSTAR":"0.00005535100000","APOAPSIS":"548.394","LAUNCH_DATE":"2020-06-13","DECAY_DATE":null,"EPOCH":"2022-12-02T16:18:49.412448","GP_ID":"219378649","MEAN_MOTION_DDOT":"0.0000000000000","OBJECT_NAME":"STARLINK-1471","TIME_SYSTEM":"UTC","NORAD_CAT_ID":"45735","MEAN_ANOMALY":"289.3870","RCS_SIZE":"LARGE","SEMIMAJOR_AXIS":"6925.359","REF_FRAME":"TEME","CLASSIFICATION_TYPE":"U","ECCENTRICITY":"0.00016900","ELEMENT_SET_NO":"999","MEAN_MOTION":"15.06396723","OBJECT_TYPE":"PAYLOAD","INCLINATION":"53.0536","SITE":"AFETR","PERIOD":"95.592","EPHEMERIS_TYPE":"0","RA_OF_ASC_NODE":"192.2554","OBJECT_ID":"2020-038F","PERIAPSIS":"546.053","ARG_OF_PERICENTER":"70.7302","CENTER_NAME":"EARTH","COUNTRY_CODE":"US","FILE":"3679625","MEAN_ELEMENT_THEORY":"SGP4","MEAN_MOTION_DOT":"0.00000543","TLE_LINE2":"2 45735  53.0536 192.2554 0001690  70.7302 289.3870 15.06396723136370","REV_AT_EPOCH":"13637","TLE_LINE1":"1 45735U 20038F   22336.67973857  .00000543  00000-0  55351-4 0  9990"},{"RA_OF_ASC_NODE":"123.9285","OBJECT_ID":"2020-038G","PERIAPSIS":"434.225","ARG_OF_PERICENTER":"133.5034","INCLINATION":"53.0598","SITE":"AFETR","EPHEMERIS_TYPE":"0","PERIOD":"93.319","COUNTRY_CODE":"US","FILE":"3679625","REV_AT_EPOCH":"13735","TLE_LINE2":"2 45736  53.0598 123.9285 0004082 133.5034 226.6311 15.43086921137359","MEAN_MOTION_DOT":"0.00015044","MEAN_ELEMENT_THEORY":"SGP4","TLE_LINE1":"1 45736U 20038G   22336.70469687  .00015044  00000-0  34365-3 0  9999","CENTER_NAME":"EARTH","DECAY_DATE":null,"APOAPSIS":"439.789","LAUNCH_DATE":"2020-06-13","GP_ID":"219379401","EPOCH":"2022-12-02T16:54:45.809568","OBJECT_NAME":"STARLINK-1472","MEAN_MOTION_DDOT":"0.0000000000000","BSTAR":"0.00034365000000","REF_FRAME":"TEME","CLASSIFICATION_TYPE":"U","ECCENTRICITY":"0.00040820","ELEMENT_SET_NO":"999","OBJECT_TYPE":"PAYLOAD","MEAN_MOTION":"15.43086921","NORAD_CAT_ID":"45736","TIME_SYSTEM":"UTC","RCS_SIZE":"LARGE","MEAN_ANOMALY":"226.6311","SEMIMAJOR_AXIS":"6815.142"},{"PERIOD":"95.592","EPHEMERIS_TYPE":"0","INCLINATION":"53.0540","SITE":"AFETR","ARG_OF_PERICENTER":"67.9777","PERIAPSIS":"546.080","OBJECT_ID":"2020-038J","RA_OF_ASC_NODE":"192.3105","CENTER_NAME":"EARTH","TLE_LINE1":"1 45738U 20038J   22336.66867724  .00000421  00000-0  47175-4 0  9997","MEAN_ELEMENT_THEORY":"SGP4","REV_AT_EPOCH":"13637","TLE_LINE2":"2 45738  53.0540 192.3105 0001623  67.9777 292.1384 15.06403110136372","MEAN_MOTION_DOT":"0.00000421","FILE":"3679625","COUNTRY_CODE":"US","BSTAR":"0.00004717500000","OBJECT_NAME":"STARLINK-1474","MEAN_MOTION_DDOT":"0.0000000000000","EPOCH":"2022-12-02T16:02:53.713536","GP_ID":"219379151","LAUNCH_DATE":"2020-06-13","APOAPSIS":"548.328","DECAY_DATE":null,"SEMIMAJOR_AXIS":"6925.339","RCS_SIZE":"LARGE","MEAN_ANOMALY":"292.1384","TIME_SYSTEM":"UTC","NORAD_CAT_ID":"45738","MEAN_MOTION":"15.06403110","OBJECT_TYPE":"PAYLOAD","ECCENTRICITY":"0.00016230","ELEMENT_SET_NO":"999","REF_FRAME":"TEME","CLASSIFICATION_TYPE":"U"}];
